CCSDS_OMM_VERS = 2.0
CREATION_DATE  = 
ORIGINATOR     = 

OBJECT_NAME    = STARLINK-36489
OBJECT_ID      = 2026-002Z
CENTER_NAME    = EARTH
REF_FRAME      = TEME
TIME_SYSTEM    = UTC
MEAN_ELEMENT_THEORY = SGP/SGP4

EPOCH          = 2026-02-01T00:00:02.999808
MEAN_MOTION    = 15.50535614
ECCENTRICITY   = .00016481
INCLINATION    = 42.9995
RA_OF_ASC_NODE = 173.5434
ARG_OF_PERICENTER = 277.7697
MEAN_ANOMALY   = 142.7645

EPHEMERIS_TYPE = 0
CLASSIFICATION_TYPE = U
NORAD_CAT_ID   = 67328
ELEMENT_SET_NO = 999
REV_AT_EPOCH   = 567
BSTAR          = .11671899E-2
MEAN_MOTION_DOT = .68629E-3
MEAN_MOTION_DDOT = 0

CCSDS_OMM_VERS = 2.0
CREATION_DATE  = 
ORIGINATOR     = 

OBJECT_NAME    = STARLINK-36496
OBJECT_ID      = 2026-002AA
CENTER_NAME    = EARTH
REF_FRAME      = TEME
TIME_SYSTEM    = UTC
MEAN_ELEMENT_THEORY = SGP/SGP4

EPOCH          = 2026-02-01T10:32:47.022432
MEAN_MOTION    = 15.50628423
ECCENTRICITY   = .0001894
INCLINATION    = 42.9983
RA_OF_ASC_NODE = 170.9618
ARG_OF_PERICENTER = 265.7968
MEAN_ANOMALY   = 94.2675

EPHEMERIS_TYPE = 0
CLASSIFICATION_TYPE = U
NORAD_CAT_ID   = 67329
ELEMENT_SET_NO = 999
REV_AT_EPOCH   = 550
BSTAR          = .11642E-2
MEAN_MOTION_DOT = .68679E-3
MEAN_MOTION_DDOT = 0

CCSDS_OMM_VERS = 2.0
CREATION_DATE  = 
ORIGINATOR     = 

OBJECT_NAME    = STARLINK-36483
OBJECT_ID      = 2026-002AB
CENTER_NAME    = EARTH
REF_FRAME      = TEME
TIME_SYSTEM    = UTC
MEAN_ELEMENT_THEORY = SGP/SGP4

EPOCH          = 2026-02-01T08:59:02.424768
MEAN_MOTION    = 15.50639233
ECCENTRICITY   = .0000842
INCLINATION    = 42.9975
RA_OF_ASC_NODE = 171.3338
ARG_OF_PERICENTER = 288.1056
MEAN_ANOMALY   = 71.9713

EPHEMERIS_TYPE = 0
CLASSIFICATION_TYPE = U
NORAD_CAT_ID   = 67330
ELEMENT_SET_NO = 999
REV_AT_EPOCH   = 567
BSTAR          = .1363E-2
MEAN_MOTION_DOT = .80622E-3
MEAN_MOTION_DDOT = 0

CCSDS_OMM_VERS = 2.0
CREATION_DATE  = 
ORIGINATOR     = 

OBJECT_NAME    = STARLINK-36494
OBJECT_ID      = 2026-002AC
CENTER_NAME    = EARTH
REF_FRAME      = TEME
TIME_SYSTEM    = UTC
MEAN_ELEMENT_THEORY = SGP/SGP4

EPOCH          = 2026-02-01T00:00:02.999808
MEAN_MOTION    = 15.50676798
ECCENTRICITY   = .00021418
INCLINATION    = 42.9998
RA_OF_ASC_NODE = 173.5374
ARG_OF_PERICENTER = 277.2911
MEAN_ANOMALY   = 145.1210

EPHEMERIS_TYPE = 0
CLASSIFICATION_TYPE = U
NORAD_CAT_ID   = 67331
ELEMENT_SET_NO = 999
REV_AT_EPOCH   = 567
BSTAR          = -.3267601E-2
MEAN_MOTION_DOT = -.188175E-2
MEAN_MOTION_DDOT = 0

CCSDS_OMM_VERS = 2.0
CREATION_DATE  = 
ORIGINATOR     = 

OBJECT_NAME    = STARLINK-36492
OBJECT_ID      = 2026-002AD
CENTER_NAME    = EARTH
REF_FRAME      = TEME
TIME_SYSTEM    = UTC
MEAN_ELEMENT_THEORY = SGP/SGP4

EPOCH          = 2026-02-01T08:59:32.129952
MEAN_MOTION    = 15.50619030
ECCENTRICITY   = .0000864
INCLINATION    = 42.9988
RA_OF_ASC_NODE = 171.3362
ARG_OF_PERICENTER = 276.6103
MEAN_ANOMALY   = 83.4659

EPHEMERIS_TYPE = 0
CLASSIFICATION_TYPE = U
NORAD_CAT_ID   = 67332
ELEMENT_SET_NO = 999
REV_AT_EPOCH   = 567
BSTAR          = .98998E-3
MEAN_MOTION_DOT = .58252E-3
MEAN_MOTION_DDOT = 0

CCSDS_OMM_VERS = 2.0
CREATION_DATE  = 
ORIGINATOR     = 

OBJECT_NAME    = STARLINK-36427
OBJECT_ID      = 2026-002AE
CENTER_NAME    = EARTH
REF_FRAME      = TEME
TIME_SYSTEM    = UTC
MEAN_ELEMENT_THEORY = SGP/SGP4

EPOCH          = 2026-02-01T12:00:01.999296
MEAN_MOTION    = 15.40683940
ECCENTRICITY   = .0001457
INCLINATION    = 43.0008
RA_OF_ASC_NODE = 170.8794
ARG_OF_PERICENTER = 269.5694
MEAN_ANOMALY   = 310.4400

EPHEMERIS_TYPE = 0
CLASSIFICATION_TYPE = U
NORAD_CAT_ID   = 67333
ELEMENT_SET_NO = 999
REV_AT_EPOCH   = 566
BSTAR          = .32521E-3
MEAN_MOTION_DOT = .13298E-3
MEAN_MOTION_DDOT = 0

CCSDS_OMM_VERS = 2.0
CREATION_DATE  = 
ORIGINATOR     = 

OBJECT_NAME    = STARLINK-35343
OBJECT_ID      = 2026-003A
CENTER_NAME    = EARTH
REF_FRAME      = TEME
TIME_SYSTEM    = UTC
MEAN_ELEMENT_THEORY = SGP/SGP4

EPOCH          = 2026-02-01T12:00:01.999296
MEAN_MOTION    = 15.50477527
ECCENTRICITY   = .0001605
INCLINATION    = 42.9999
RA_OF_ASC_NODE = 73.2095
ARG_OF_PERICENTER = 272.9702
MEAN_ANOMALY   = 277.5912

EPHEMERIS_TYPE = 0
CLASSIFICATION_TYPE = U
NORAD_CAT_ID   = 67334
ELEMENT_SET_NO = 999
REV_AT_EPOCH   = 479
BSTAR          = .18289E-2
MEAN_MOTION_DOT = .108051E-2
MEAN_MOTION_DDOT = 0

CCSDS_OMM_VERS = 2.0
CREATION_DATE  = 
ORIGINATOR     = 

OBJECT_NAME    = STARLINK-36486
OBJECT_ID      = 2026-003B
CENTER_NAME    = EARTH
REF_FRAME      = TEME
TIME_SYSTEM    = UTC
MEAN_ELEMENT_THEORY = SGP/SGP4

EPOCH          = 2026-02-01T12:00:01.999296
MEAN_MOTION    = 15.50481498
ECCENTRICITY   = .0001628
INCLINATION    = 42.9997
RA_OF_ASC_NODE = 73.2048
ARG_OF_PERICENTER = 272.2408
MEAN_ANOMALY   = 280.2316

EPHEMERIS_TYPE = 0
CLASSIFICATION_TYPE = U
NORAD_CAT_ID   = 67335
ELEMENT_SET_NO = 999
REV_AT_EPOCH   = 485
BSTAR          = .19536E-2
MEAN_MOTION_DOT = .115572E-2
MEAN_MOTION_DDOT = 0

CCSDS_OMM_VERS = 2.0
CREATION_DATE  = 
ORIGINATOR     = 

OBJECT_NAME    = STARLINK-36480
OBJECT_ID      = 2026-003C
CENTER_NAME    = EARTH
REF_FRAME      = TEME
TIME_SYSTEM    = UTC
MEAN_ELEMENT_THEORY = SGP/SGP4

EPOCH          = 2026-02-01T12:00:01.999296
MEAN_MOTION    = 15.50486420
ECCENTRICITY   = .0001771
INCLINATION    = 42.9996
RA_OF_ASC_NODE = 73.2004
ARG_OF_PERICENTER = 274.4291
MEAN_ANOMALY   = 279.9679

EPHEMERIS_TYPE = 0
CLASSIFICATION_TYPE = U
NORAD_CAT_ID   = 67336
ELEMENT_SET_NO = 999
REV_AT_EPOCH   = 485
BSTAR          = .19492E-2
MEAN_MOTION_DOT = .115328E-2
MEAN_MOTION_DDOT = 0

CCSDS_OMM_VERS = 2.0
CREATION_DATE  = 
ORIGINATOR     = 

OBJECT_NAME    = STARLINK-36410
OBJECT_ID      = 2026-003D
CENTER_NAME    = EARTH
REF_FRAME      = TEME
TIME_SYSTEM    = UTC
MEAN_ELEMENT_THEORY = SGP/SGP4

EPOCH          = 2026-02-01T12:00:01.999296
MEAN_MOTION    = 15.50487278
ECCENTRICITY   = .0001644
INCLINATION    = 42.9996
RA_OF_ASC_NODE = 73.1953
ARG_OF_PERICENTER = 272.2217
MEAN_ANOMALY   = 284.0910

EPHEMERIS_TYPE = 0
CLASSIFICATION_TYPE = U
NORAD_CAT_ID   = 67337
ELEMENT_SET_NO = 999
REV_AT_EPOCH   = 485
BSTAR          = .19218E-2
MEAN_MOTION_DOT = .113679E-2
MEAN_MOTION_DDOT = 0

CCSDS_OMM_VERS = 2.0
CREATION_DATE  = 
ORIGINATOR     = 

OBJECT_NAME    = STARLINK-36413
OBJECT_ID      = 2026-003E
CENTER_NAME    = EARTH
REF_FRAME      = TEME
TIME_SYSTEM    = UTC
MEAN_ELEMENT_THEORY = SGP/SGP4

EPOCH          = 2026-02-01T12:00:01.999296
MEAN_MOTION    = 15.50469880
ECCENTRICITY   = .0001616
INCLINATION    = 42.9998
RA_OF_ASC_NODE = 73.1903
ARG_OF_PERICENTER = 272.1632
MEAN_ANOMALY   = 286.0628

EPHEMERIS_TYPE = 0
CLASSIFICATION_TYPE = U
NORAD_CAT_ID   = 67338
ELEMENT_SET_NO = 999
REV_AT_EPOCH   = 485
BSTAR          = .18026E-2
MEAN_MOTION_DOT = .106445E-2
MEAN_MOTION_DDOT = 0

CCSDS_OMM_VERS = 2.0
CREATION_DATE  = 
ORIGINATOR     = 

OBJECT_NAME    = STARLINK-36451
OBJECT_ID      = 2026-003F
CENTER_NAME    = EARTH
REF_FRAME      = TEME
TIME_SYSTEM    = UTC
MEAN_ELEMENT_THEORY = SGP/SGP4

EPOCH          = 2026-02-01T12:00:01.999296
MEAN_MOTION    = 15.50485323
ECCENTRICITY   = .0001783
INCLINATION    = 42.9997
RA_OF_ASC_NODE = 73.1851
ARG_OF_PERICENTER = 271.1488
MEAN_ANOMALY   = 288.9963

EPHEMERIS_TYPE = 0
CLASSIFICATION_TYPE = U
NORAD_CAT_ID   = 67339
ELEMENT_SET_NO = 999
REV_AT_EPOCH   = 485
BSTAR          = .19272E-2
MEAN_MOTION_DOT = .113998E-2
MEAN_MOTION_DDOT = 0

