STARLINK-36489          
1 67328U 26002Z   26032.00003472  .00068629  00000+0  11672-2 0  9994
2 67328  42.9995 173.5434 0001648 277.7697 142.7645 15.50535614  5679
STARLINK-36496          
1 67329U 26002AA  26032.43943313  .00068679  00000+0  11642-2 0  9991
2 67329  42.9983 170.9618 0001894 265.7968  94.2675 15.50628423  5500
STARLINK-36483          
1 67330U 26002AB  26032.37433362  .00080622  00000+0  13630-2 0  9995
2 67330  42.9975 171.3338 0000842 288.1056  71.9713 15.50639233  5670
STARLINK-36494          
1 67331U 26002AC  26032.00003472 -.00188175  00000+0 -32676-2 0  9996
2 67331  42.9998 173.5374 0002141 277.2911 145.1210 15.50676798  5676
STARLINK-36492          
1 67332U 26002AD  26032.37467743  .00058252  00000+0  98998-3 0  9992
2 67332  42.9988 171.3362 0000864 276.6103  83.4659 15.50619030  5672
STARLINK-36427          
1 67333U 26002AE  26032.50002314  .00013298  00000+0  32521-3 0  9998
2 67333  43.0008 170.8794 0001457 269.5694 310.4400 15.40683940  5662
STARLINK-35343          
1 67334U 26003A   26032.50002314  .00108051  00000+0  18289-2 0  9996
2 67334  42.9999  73.2095 0001605 272.9702 277.5912 15.50477527  4790
STARLINK-36486          
1 67335U 26003B   26032.50002314  .00115572  00000+0  19536-2 0  9999
2 67335  42.9997  73.2048 0001628 272.2408 280.2316 15.50481498  4856
STARLINK-36480          
1 67336U 26003C   26032.50002314  .00115328  00000+0  19492-2 0  9990
2 67336  42.9996  73.2004 0001771 274.4291 279.9679 15.50486420  4858
STARLINK-36410          
1 67337U 26003D   26032.50002314  .00113679  00000+0  19218-2 0  9994
2 67337  42.9996  73.1953 0001644 272.2217 284.0910 15.50487278  4851
STARLINK-36413          
1 67338U 26003E   26032.50002314  .00106445  00000+0  18026-2 0  9994
2 67338  42.9998  73.1903 0001616 272.1632 286.0628 15.50469880  4855
STARLINK-36451          
1 67339U 26003F   26032.50002314  .00113998  00000+0  19272-2 0  9990
2 67339  42.9997  73.1851 0001783 271.1488 288.9963 15.50485323  4853
